{
  "norad_id": 68874,
  "name": "KUIPER-00476",
  "history": [
    {
      "epoch": "2026-05-02T10:00:03.000096Z",
      "apogee_km": 464.06339797608416,
      "perigee_km": 450.5428973639928,
      "latitude_deg": 36.448041199116545,
      "longitude_deg": -121.81022325008381,
      "height_km": 453.26928504847814,
      "semi_major_axis_km": 6835.440147670039,
      "eccentricity": 0.000989,
      "inclination_deg": 51.8725,
      "raan_deg": 103.7393,
      "arg_perigee_deg": 128.8057,
      "mean_anomaly_deg": 2.3329,
      "mean_motion_rev_day": 15.36218655
    }
  ]
}