{"fetched_at":"2026-05-03T06:27:58Z","count":17151,"tles":[{"name":"KUIPER-00476","line1":"1 68874U 26095L   26122.41670139  .00068340  00000+0  18975-2 0  9991","line2":"2 68874  51.8725 103.7393 0009890 128.8057   2.3329 15.36218655  1873","category":"Other"}]}